STARLINK-4114           
1 53162U 22083AG  24190.90084690  .00002999  00000+0  20643-3 0  9990
2 53162  53.2178  17.0900 0001225  78.8663 281.2467 15.08845607109453
STARLINK-4104           
1 53163U 22083AH  24190.82630742  .00001013  00000+0  81707-4 0  9992
2 53163  53.2182  17.5611 0001099  81.9205 278.1912 15.08839133109445
STARLINK-4116           
1 53164U 22083AJ  24190.88885117  .00002036  00000+0  14598-3 0  9996
2 53164  53.2194  17.1384 0001447  94.6906 265.4251 15.08840121109453
STARLINK-4090           
1 53165U 22083AK  24190.80789035  .00004277  00000+0  28661-3 0  9996
2 53165  53.2190  17.4954 0001487  79.8460 280.2700 15.08847164109447
STARLINK-4110           
1 53166U 22083AL  24190.81525003  .00000863  00000+0  72321-4 0  9991
2 53166  53.2187  17.4661 0001194  88.2948 271.8181 15.08835257109448
STARLINK-3683           
1 53167U 22083AM  24190.75958896  .00001307  00000+0  10019-3 0  9994
2 53167  53.2173   2.7096 0001258  81.0420 279.0714 15.08836009109639
STARLINK-4105           
1 53168U 22083AN  24190.81157053  .00004059  00000+0  27290-3 0  9994
2 53168  53.2174  17.4798 0001173  85.1881 274.9245 15.08846799109444
STARLINK-4117           
1 53169U 22083AP  24190.80377982  .00005824  00000+0  38361-3 0  9991
2 53169  53.2169   2.7742 0001112  81.4634 278.6484 15.08848106109634
STARLINK-4095           
1 53170U 22083AQ  24190.90586188  .00002382  00000+0  16766-3 0  9995
2 53170  53.2172  12.0111 0001087  88.2293 271.8824 15.08844676109520
STARLINK-4052           
1 53171U 22083AR  24190.74806306  .00001366  00000+0  10388-3 0  9990
2 53171  53.2188 347.5301 0001183  76.1869 283.9255 15.08841768109843
STARLINK-4299           
1 53172U 22083AS  24190.89849813  .00007313  00000+0  47694-3 0  9995
2 53172  53.2169  12.0048 0001244  78.2795 281.8337 15.08849534109515
STARLINK-4300           
1 53173U 22083AT  24190.72002938  .00002664  00000+0  18540-3 0  9999
2 53173  53.2179 352.8833 0001044  82.7759 277.3352 15.08840906109760
STARLINK-4205           
1 53174U 22083AU  24190.94039693  .00000516  00000+0  50480-4 0  9996
2 53174  53.2185  26.8345 0001257  92.0469 268.0667 15.08842888109950
STARLINK-4292           
1 53175U 22083AV  24190.81065081  .00001542  00000+0  11496-3 0  9996
2 53175  53.2177  27.4813 0001249  86.0951 274.0184 15.08840353109292
STARLINK-4294           
1 53176U 22083AW  24190.74853992  .00002639  00000+0  18380-3 0  9992
2 53176  53.2167   2.6775 0001374  85.4904 274.6245 15.08840730109635
STARLINK-4298           
1 53177U 22083AX  24190.71266908  .00007154  00000+0  46711-3 0  9991
2 53177  53.2183 352.9135 0000762  92.6419 267.4660 15.08841678109763
STARLINK-4280           
1 53178U 22083AY  24190.80421058  .00002034  00000+0  14587-3 0  9999
2 53178  53.2193  17.5172 0001110  79.7217 280.3900 15.08834087109420
STARLINK-4276           
1 53179U 22083AZ  24190.79680274  .00003282  00000+0  22415-3 0  9990
2 53179  53.2174 337.1470 0001124  78.1986 281.9132 15.08846088109993
STARLINK-4258           
1 53180U 22083BA  24190.69011694  .00002972  00000+0  20474-3 0  9993
2 53180  53.2185 337.8989 0001145  97.7886 262.3236 15.08840559109971
STARLINK-4273           
1 53181U 22083BB  24190.67360934  .00000924  00000+0  74586-4 0  9995
2 53181  53.2175 337.8019 0000553 335.9159  24.1807 15.09660581109971
STARLINK-4278           
1 53182U 22083BC  24191.17266567  .00004205  00000+0  28203-3 0  9999
2 53182  53.2182 350.8526 0001243  79.9206 280.1927 15.08852605110476
STARLINK-4268           
1 53183U 22083BD  24190.71725567  .00003803  00000+0  25684-3 0  9992
2 53183  53.2174 342.8209 0001193  93.6368 266.4761 15.08848744109901
STARLINK-4257           
1 53184U 22083BE  24190.79312074  .00001833  00000+0  13325-3 0  9996
2 53184  53.2181 337.1516 0001371  73.6832 286.4311 15.08839729110009
STARLINK-4391           
1 53189U 22084A   24190.91744543  .00002333  00000+0  18621-3 0  9996
2 53189  97.6566 251.4382 0000213 249.1457 110.9744 15.01255928108654
STARLINK-4332           
1 53190U 22084B   24191.21156837  .00003695  00000+0  29202-3 0  9994
2 53190  97.6538 251.7190 0003385 226.1228 133.9717 15.01270787108407
STARLINK-4369           
1 53191U 22084C   24191.17269463 -.00000737  00000+0 -52795-4 0  9990
2 53191  97.6548 251.7048 0001912  90.4120 269.7323 15.01275155108391
STARLINK-4375           
1 53192U 22084D   24191.17084234  .00000444  00000+0  39130-4 0  9993
2 53192  97.6543 251.7035 0001760  97.4301 262.7123 15.01267532108393
STARLINK-4351           
1 53193U 22084E   24191.17640063  .00001804  00000+0  14496-3 0  9990
2 53193  97.6552 251.7091 0001768  95.0028 265.1398 15.01265358108401
STARLINK-4382           
1 53194U 22084F   24191.17454662  .00001177  00000+0  96183-4 0  9996
2 53194  97.6546 251.7076 0001853  87.2427 272.9010 15.01266530108397
STARLINK-4404           
1 53195U 22084G   24191.16158680  .00000620  00000+0  52852-4 0  9994
2 53195  97.6535 251.7005 0001735  90.0711 270.0712 15.01263332108390
STARLINK-4407           
1 53196U 22084H   24191.16343885  .00004100  00000+0  32358-3 0  9993
2 53196  97.6520 251.7056 0001787  94.1588 265.9841 15.01267673108393
STARLINK-4403           
1 53197U 22084J   24190.89868441  .00000762  00000+0  63877-4 0  9994
2 53197  97.6531 251.4303 0001573  95.0081 265.1322 15.01259502107970
STARLINK-4385           
1 53198U 22084K   24190.90238740  .00001458  00000+0  11805-3 0  9996
2 53198  97.6543 251.4376 0001598  93.4628 266.6779 15.01261421108639
STARLINK-4395           
1 53199U 22084L   24191.16714510  .00000368  00000+0  33225-4 0  9990
2 53199  97.6540 251.6884 0001636  96.9096 263.2315 15.01263163108390
STARLINK-4417           
1 53200U 22084M   24191.16368695  .00000468  00000+0  41036-4 0  9992
2 53200  97.6532 251.6974 0001580  97.4008 262.7395 15.01260613108390
STARLINK-4405           
1 53201U 22084N   24190.88781716  .00001340  00000+0  10893-3 0  9990
2 53201  97.6546 251.4213 0000326 181.4716 178.6507 15.01257539107973
STARLINK-4411           
1 53202U 22084P   24190.89312944  .00001415  00000+0  11476-3 0  9996
2 53202  97.6540 251.4257 0001309 100.0844 260.0528 15.01258997107975
STARLINK-4409           
1 53203U 22084Q   24191.15603414  .00000716  00000+0  60309-4 0  9995
2 53203  97.6546 251.6740 0000423 105.1015 255.0256 15.01259947108398
STARLINK-4410           
1 53204U 22084R   24190.89337553  .00001025  00000+0  84354-4 0  9994
2 53204  97.6542 251.4214 0001411  95.1687 264.9698 15.01257304108631
STARLINK-4397           
1 53205U 22084S   24191.15232702  .00001411  00000+0  11443-3 0  9992
2 53205  97.6545 251.6696 0001147 253.0681 107.0417 15.01261498108394
STARLINK-4408           
1 53206U 22084T   24190.74129711  .00001209  00000+0  98736-4 0  9998
2 53206  97.6540 251.2972 0004283 222.5919 137.4973 15.01260926107952
STARLINK-4413           
1 53207U 22084U   24190.88386805  .00001534  00000+0  12402-3 0  9999
2 53207  97.6540 251.4049 0001598 237.3424 122.7646 15.01259762107973
STARLINK-4425           
1 53208U 22084V   24190.89127726  .00002163  00000+0  17289-3 0  9993
2 53208  97.6535 251.4139 0001141  96.2493 263.8862 15.01264001107979
STARLINK-4423           
1 53209U 22084W   24190.88226013  .00000855  00000+0  71123-4 0  9996
2 53209  97.6545 251.4029 0001951 239.9686 120.1344 15.01260380107974
STARLINK-4427           
1 53210U 22084X   24190.88757345  .00001122  00000+0  91915-4 0  9994
2 53210  97.6544 251.4089 0000222 176.1989 183.9237 15.01258595108513
STARLINK-4419           
1 53211U 22084Y   24190.74339776  .00001074  00000+0  88184-4 0  9994
2 53211  97.6545 251.2679 0003601 219.1548 140.9416 15.01258792108477
STARLINK-4416           
1 53212U 22084Z   24190.88201373  .00001796  00000+0  14442-3 0  9997
2 53212  97.6540 251.4030 0003029 230.1000 129.9958 15.01260532108356
STARLINK-4414           
1 53213U 22084AA  24191.13936463  .00000325  00000+0  29926-4 0  9993
2 53213  97.6548 251.6547 0004655 192.5672 167.5437 15.01267049108396
STARLINK-4353           
1 53214U 22084AB  24190.88017478  .00003167  00000+0  25100-3 0  9997
2 53214  97.6547 251.4006 0003224 216.8141 143.2863 15.01267648107978
STARLINK-4335           
1 53215U 22084AC  24190.73760131  .00001521  00000+0  12295-3 0  9996
2 53215  97.6543 251.2580 0005303 192.9400 167.1689 15.01263717108472
STARLINK-4376           
1 53216U 22084AD  24190.74315314  .00003276  00000+0  25945-3 0  9992
2 53216  97.6540 251.2639 0004702 213.7664 146.3261 15.01262045107951
STARLINK-4379           
1 53217U 22084AE  24190.92645459  .00000777  00000+0  65096-4 0  9994
2 53217  97.6583 251.4704 0001137 104.7451 255.3899 15.01259512107982
STARLINK-4384           
1 53218U 22084AF  24190.72858859  .00001846  00000+0  14831-3 0  9991
2 53218  97.6576 251.2828 0003443 193.5672 166.5460 15.01260263108470
STARLINK-4373           
1 53219U 22084AG  24190.93015589  .00001308  00000+0  10641-3 0  9998
2 53219  97.6567 251.4510 0002845 177.1867 182.9373 15.01260461107980
STARLINK-4363           
1 53220U 22084AH  24190.73575625  .00006129  00000+0  48128-3 0  9997
2 53220  97.6545 251.2570 0004194 187.6395 172.4766 15.01260510108473
STARLINK-4377           
1 53221U 22084AJ  24190.92830549  .00001811  00000+0  14557-3 0  9990
2 53221  97.6575 251.4511 0002962 168.8601 191.2689 15.01261010107980
STARLINK-4381           
1 53222U 22084AK  24190.73390097  .00001246  00000+0  10162-3 0  9999
2 53222  97.6551 251.2548 0004074 186.7650 173.3520 15.01259296107957
STARLINK-4354           
1 53223U 22084AL  24190.73414798  .00001053  00000+0  86599-4 0  9999
2 53223  97.6551 251.2386 0003967 176.7896 183.3355 15.01260083107952
STARLINK-4356           
1 53224U 22084AM  24190.93200704  .00001415  00000+0  11477-3 0  9996
2 53224  97.6556 251.4515 0003919 189.3472 170.7680 15.01260935107981
